[{"OBJECT_NAME":"COSMOS 2484 (RODNIK-S 6)","OBJECT_ID":"2013-001C","EPOCH":"2026-03-09T23:27:47.055744","MEAN_MOTION":12.42935832,"ECCENTRICITY":0.00255948,"INCLINATION":82.4982,"RA_OF_ASC_NODE":283.5951,"ARG_OF_PERICENTER":249.9644,"MEAN_ANOMALY":109.868,"EPHEMERIS_TYPE":0,"CLASSIFICATION_TYPE":"U","NORAD_CAT_ID":39059,"ELEMENT_SET_NO":999,"REV_AT_EPOCH":59623,"BSTAR":-0.00079060898,"MEAN_MOTION_DOT":-1.0e-6,"MEAN_MOTION_DDOT":0},{"OBJECT_NAME":"SL-8 DEB","OBJECT_ID":"1991-009BU","EPOCH":"2026-03-09T22:23:46.351104","MEAN_MOTION":12.18854509,"ECCENTRICITY":0.02279196,"INCLINATION":73.9554,"RA_OF_ASC_NODE":268.3324,"ARG_OF_PERICENTER":203.353,"MEAN_ANOMALY":286.0497,"EPHEMERIS_TYPE":0,"CLASSIFICATION_TYPE":"U","NORAD_CAT_ID":21405,"ELEMENT_SET_NO":999,"REV_AT_EPOCH":55585,"BSTAR":0.00045179803,"MEAN_MOTION_DOT":3.5e-7,"MEAN_MOTION_DDOT":0}]
